<?xml version="1.0" encoding="UTF-8"?>
<seiscomp xmlns="http://geofon.gfz-potsdam.de/ns/seiscomp3-schema/0.7" version="0.7">
  <EventParameters>
    <pick publicID="Pick#20151012081200.115203.26387">
      <time>
        <value>2015-10-12T08:05:06.792207Z</value>
      </time>
      <waveformID networkCode="NZ" stationCode="BFZ" locationCode="10" channelCode="HHN"/>
      <filterID>BW(4,2,15)</filterID>
      <phaseHint>P</phaseHint>
      <evaluationMode>manual</evaluationMode>
      <creationInfo>
        <agencyID>WEL(GNS_Primary)</agencyID>
        <author>cholden@akeqx01.geonet.org.nz</author>
        <creationTime>2015-10-12T08:12:00.11555Z</creationTime>
      </creationInfo>
    </pick>
    <pick publicID="Pick#20151012081200.115882.26388">
      <time>
        <value>2015-10-12T08:05:11.143408Z</value>
      </time>
      <waveformID networkCode="NZ" stationCode="BFZ" locationCode="10" channelCode="HHE"/>
      <filterID>BW(4,2,15)</filterID>
      <phaseHint>S</phaseHint>
      <evaluationMode>manual</evaluationMode>
      <creationInfo>
        <agencyID>WEL(GNS_Primary)</agencyID>
        <author>cholden@akeqx01.geonet.org.nz</author>
        <creationTime>2015-10-12T08:12:00.115974Z</creationTime>
      </creationInfo>
    </pick>
    <pick publicID="20151012.080506.85-AIC-NZ.ANWZ.10.EHZ">
      <time>
        <value>2015-10-12T08:05:06.853647Z</value>
      </time>
      <waveformID networkCode="NZ" stationCode="ANWZ" locationCode="10" channelCode="EHZ"/>
      <filterID>BW(4,2.5,15)</filterID>
      <methodID>AIC</methodID>
      <phaseHint>P</phaseHint>
      <evaluationMode>automatic</evaluationMode>
      <creationInfo>
        <agencyID>WEL(GNS_Primary)</agencyID>
        <author>scautopick@akeqp01.geonet.org.nz</author>
        <creationTime>2015-10-12T08:06:52.88384Z</creationTime>
      </creationInfo>
    </pick>
    <pick publicID="Pick#20151012081200.116109.26389">
      <time>
        <value>2015-10-12T08:05:11.228667Z</value>
      </time>
      <waveformID networkCode="NZ" stationCode="ANWZ" locationCode="10" channelCode="EHE"/>
      <filterID>BW(4,2,15)</filterID>
      <phaseHint>S</phaseHint>
      <evaluationMode>manual</evaluationMode>
      <creationInfo>
        <agencyID>WEL(GNS_Primary)</agencyID>
        <author>cholden@akeqx01.geonet.org.nz</author>
        <creationTime>2015-10-12T08:12:00.116197Z</creationTime>
      </creationInfo>
    </pick>
    <pick publicID="20151012.080509.03-AIC-NZ.PRWZ.10.EHZ">
      <time>
        <value>2015-10-12T08:05:09.038392Z</value>
      </time>
      <waveformID networkCode="NZ" stationCode="PRWZ" locationCode="10" channelCode="EHZ"/>
      <filterID>BW(4,2.5,15)</filterID>
      <methodID>AIC</methodID>
      <phaseHint>P</phaseHint>
      <evaluationMode>automatic</evaluationMode>
      <creationInfo>
        <agencyID>WEL(GNS_Primary)</agencyID>
        <author>scautopick@akeqp01.geonet.org.nz</author>
        <creationTime>2015-10-12T08:05:18.314101Z</creationTime>
      </creationInfo>
    </pick>
    <pick publicID="Pick#20151012081200.116302.26390">
      <time>
        <value>2015-10-12T08:05:14.434439Z</value>
      </time>
      <waveformID networkCode="NZ" stationCode="PRWZ" locationCode="10" channelCode="EHE"/>
      <filterID>BW(4,2,15)</filterID>
      <phaseHint>S</phaseHint>
      <evaluationMode>manual</evaluationMode>
      <creationInfo>
        <agencyID>WEL(GNS_Primary)</agencyID>
        <author>cholden@akeqx01.geonet.org.nz</author>
        <creationTime>2015-10-12T08:12:00.116388Z</creationTime>
      </creationInfo>
    </pick>
    <pick publicID="20151012.080508.75-AIC-NZ.DVHZ.10.EHZ">
      <time>
        <value>2015-10-12T08:05:08.75839Z</value>
      </time>
      <waveformID networkCode="NZ" stationCode="DVHZ" locationCode="10" channelCode="EHZ"/>
      <filterID>BW(4,2.5,15)</filterID>
      <methodID>AIC</methodID>
      <phaseHint>P</phaseHint>
      <evaluationMode>automatic</evaluationMode>
      <creationInfo>
        <agencyID>WEL(GNS_Primary)</agencyID>
        <author>scautopick@akeqp01.geonet.org.nz</author>
        <creationTime>2015-10-12T08:05:19.821702Z</creationTime>
      </creationInfo>
    </pick>
    <pick publicID="Pick#20151012081200.116618.26392">
      <time>
        <value>2015-10-12T08:05:13.824104Z</value>
      </time>
      <waveformID networkCode="NZ" stationCode="DVHZ" locationCode="10" channelCode="EHE"/>
      <filterID>BW(4,2,15)</filterID>
      <phaseHint>S</phaseHint>
      <evaluationMode>manual</evaluationMode>
      <creationInfo>
        <agencyID>WEL(GNS_Primary)</agencyID>
        <author>cholden@akeqx01.geonet.org.nz</author>
        <creationTime>2015-10-12T08:12:00.116738Z</creationTime>
      </creationInfo>
    </pick>
    <pick publicID="20151012.080511.60-AIC-NZ.CPWZ.10.EHZ">
      <time>
        <value>2015-10-12T08:05:11.608385Z</value>
      </time>
      <waveformID networkCode="NZ" stationCode="CPWZ" locationCode="10" channelCode="EHZ"/>
      <filterID>BW(4,2.5,15)</filterID>
      <methodID>AIC</methodID>
      <phaseHint>P</phaseHint>
      <evaluationMode>automatic</evaluationMode>
      <creationInfo>
        <agencyID>WEL(GNS_Primary)</agencyID>
        <author>scautopick@akeqp01.geonet.org.nz</author>
        <creationTime>2015-10-12T08:05:22.635649Z</creationTime>
      </creationInfo>
    </pick>
    <pick publicID="20151012.080511.25-AIC-NZ.TIWZ.10.EHZ">
      <time>
        <value>2015-10-12T08:05:11.258393Z</value>
      </time>
      <waveformID networkCode="NZ" stationCode="TIWZ" locationCode="10" channelCode="EHZ"/>
      <filterID>BW(4,2.5,15)</filterID>
      <methodID>AIC</methodID>
      <phaseHint>P</phaseHint>
      <evaluationMode>automatic</evaluationMode>
      <creationInfo>
        <agencyID>WEL(GNS_Primary)</agencyID>
        <author>scautopick@akeqp01.geonet.org.nz</author>
        <creationTime>2015-10-12T08:05:20.223148Z</creationTime>
      </creationInfo>
    </pick>
    <pick publicID="20151012.080510.75-AIC-NZ.PRHZ.10.EHZ">
      <time>
        <value>2015-10-12T08:05:10.758393Z</value>
      </time>
      <waveformID networkCode="NZ" stationCode="PRHZ" locationCode="10" channelCode="EHZ"/>
      <filterID>BW(4,2.5,15)</filterID>
      <methodID>AIC</methodID>
      <phaseHint>P</phaseHint>
      <evaluationMode>automatic</evaluationMode>
      <creationInfo>
        <agencyID>WEL(GNS_Primary)</agencyID>
        <author>scautopick@akeqp01.geonet.org.nz</author>
        <creationTime>2015-10-12T08:05:21.448477Z</creationTime>
      </creationInfo>
    </pick>
    <pick publicID="Pick#20151012081200.116453.26391">
      <time>
        <value>2015-10-12T08:05:18.166462Z</value>
      </time>
      <waveformID networkCode="NZ" stationCode="PRHZ" locationCode="10" channelCode="EHE"/>
      <filterID>BW(4,2,15)</filterID>
      <phaseHint>S</phaseHint>
      <evaluationMode>manual</evaluationMode>
      <creationInfo>
        <agencyID>WEL(GNS_Primary)</agencyID>
        <author>cholden@akeqx01.geonet.org.nz</author>
        <creationTime>2015-10-12T08:12:00.116541Z</creationTime>
      </creationInfo>
    </pick>
    <pick publicID="20151012.080511.99-AIC-NZ.POWZ.10.EHZ">
      <time>
        <value>2015-10-12T08:05:11.998402Z</value>
      </time>
      <waveformID networkCode="NZ" stationCode="POWZ" locationCode="10" channelCode="EHZ"/>
      <filterID>BW(4,2.5,15)</filterID>
      <methodID>AIC</methodID>
      <phaseHint>P</phaseHint>
      <evaluationMode>automatic</evaluationMode>
      <creationInfo>
        <agencyID>WEL(GNS_Primary)</agencyID>
        <author>scautopick@akeqp01.geonet.org.nz</author>
        <creationTime>2015-10-12T08:05:21.22862Z</creationTime>
      </creationInfo>
    </pick>
    <pick publicID="Pick#20151012224035.061273.152523">
      <time>
        <value>2015-10-12T08:05:19.93968Z</value>
      </time>
      <waveformID networkCode="NZ" stationCode="POWZ" locationCode="10" channelCode="EHN"/>
      <filterID>BW(4,2,15)</filterID>
      <phaseHint>S</phaseHint>
      <evaluationMode>manual</evaluationMode>
      <creationInfo>
        <agencyID>WEL(GNS_Primary)</agencyID>
        <author>srwgbgf@akeqx01.geonet.org.nz</author>
        <creationTime>2015-10-12T22:40:35.061435Z</creationTime>
      </creationInfo>
    </pick>
    <pick publicID="Pick#20151012224035.061492.152524">
      <time>
        <value>2015-10-12T08:05:10.941685Z</value>
      </time>
      <waveformID networkCode="NZ" stationCode="EKTS" locationCode="20" channelCode="BNZ"/>
      <filterID>BW(4,2,15)</filterID>
      <phaseHint>P</phaseHint>
      <evaluationMode>manual</evaluationMode>
      <creationInfo>
        <agencyID>WEL(GNS_Primary)</agencyID>
        <author>srwgbgf@akeqx01.geonet.org.nz</author>
        <creationTime>2015-10-12T22:40:35.061547Z</creationTime>
      </creationInfo>
    </pick>
    <pick publicID="Pick#20151012224035.06158.152525">
      <time>
        <value>2015-10-12T08:05:18.882962Z</value>
      </time>
      <waveformID networkCode="NZ" stationCode="EKTS" locationCode="20" channelCode="BN1"/>
      <filterID>BW(4,2,15)</filterID>
      <phaseHint>S</phaseHint>
      <evaluationMode>manual</evaluationMode>
      <creationInfo>
        <agencyID>WEL(GNS_Primary)</agencyID>
        <author>srwgbgf@akeqx01.geonet.org.nz</author>
        <creationTime>2015-10-12T22:40:35.061632Z</creationTime>
      </creationInfo>
    </pick>
    <pick publicID="20151012.080512.95-AIC-NZ.WPHZ.10.EHZ">
      <time>
        <value>2015-10-12T08:05:12.958391Z</value>
      </time>
      <waveformID networkCode="NZ" stationCode="WPHZ" locationCode="10" channelCode="EHZ"/>
      <filterID>BW(4,2.5,15)</filterID>
      <methodID>AIC</methodID>
      <phaseHint>P</phaseHint>
      <evaluationMode>automatic</evaluationMode>
      <creationInfo>
        <agencyID>WEL(GNS_Primary)</agencyID>
        <author>scautopick@akeqp01.geonet.org.nz</author>
        <creationTime>2015-10-12T08:05:25.651378Z</creationTime>
      </creationInfo>
    </pick>
    <pick publicID="Pick#20151012224035.061716.152526">
      <time>
        <value>2015-10-12T08:05:21.590215Z</value>
      </time>
      <waveformID networkCode="NZ" stationCode="WPHZ" locationCode="10" channelCode="EHN"/>
      <filterID>BW(4,2,15)</filterID>
      <phaseHint>S</phaseHint>
      <evaluationMode>manual</evaluationMode>
      <creationInfo>
        <agencyID>WEL(GNS_Primary)</agencyID>
        <author>srwgbgf@akeqx01.geonet.org.nz</author>
        <creationTime>2015-10-12T22:40:35.061774Z</creationTime>
      </creationInfo>
    </pick>
    <pick publicID="Pick#20151012224035.061908.152528">
      <time>
        <value>2015-10-12T08:05:12.668049Z</value>
      </time>
      <waveformID networkCode="NZ" stationCode="PNRS" locationCode="20" channelCode="BNZ"/>
      <filterID>BW(4,2,15)</filterID>
      <phaseHint>P</phaseHint>
      <evaluationMode>manual</evaluationMode>
      <creationInfo>
        <agencyID>WEL(GNS_Primary)</agencyID>
        <author>srwgbgf@akeqx01.geonet.org.nz</author>
        <creationTime>2015-10-12T22:40:35.06196Z</creationTime>
      </creationInfo>
    </pick>
    <pick publicID="Pick#20151012224035.061996.152529">
      <time>
        <value>2015-10-12T08:05:22.105507Z</value>
      </time>
      <waveformID networkCode="NZ" stationCode="PNRS" locationCode="20" channelCode="BN1"/>
      <filterID>BW(4,2,15)</filterID>
      <phaseHint>S</phaseHint>
      <evaluationMode>manual</evaluationMode>
      <creationInfo>
        <agencyID>WEL(GNS_Primary)</agencyID>
        <author>srwgbgf@akeqx01.geonet.org.nz</author>
        <creationTime>2015-10-12T22:40:35.062051Z</creationTime>
      </creationInfo>
    </pick>
    <pick publicID="20151012.080513.84-AIC-NZ.MRZ.10.HHZ">
      <time>
        <value>2015-10-12T08:05:13.848393Z</value>
      </time>
      <waveformID networkCode="NZ" stationCode="MRZ" locationCode="10" channelCode="HHZ"/>
      <filterID>BW(4,2.5,15)</filterID>
      <methodID>AIC</methodID>
      <phaseHint>P</phaseHint>
      <evaluationMode>automatic</evaluationMode>
      <creationInfo>
        <agencyID>WEL(GNS_Primary)</agencyID>
        <author>scautopick@akeqp01.geonet.org.nz</author>
        <creationTime>2015-10-12T08:05:23.942029Z</creationTime>
      </creationInfo>
    </pick>
    <pick publicID="Pick#20151012224035.061815.152527">
      <time>
        <value>2015-10-12T08:05:22.82549Z</value>
      </time>
      <waveformID networkCode="NZ" stationCode="MRZ" locationCode="10" channelCode="HHN"/>
      <filterID>BW(4,2,15)</filterID>
      <phaseHint>S</phaseHint>
      <evaluationMode>manual</evaluationMode>
      <creationInfo>
        <agencyID>WEL(GNS_Primary)</agencyID>
        <author>srwgbgf@akeqx01.geonet.org.nz</author>
        <creationTime>2015-10-12T22:40:35.061868Z</creationTime>
      </creationInfo>
    </pick>
    <pick publicID="20151012.080513.66-AIC-NZ.TSZ.10.HHZ">
      <time>
        <value>2015-10-12T08:05:13.663125Z</value>
      </time>
      <waveformID networkCode="NZ" stationCode="TSZ" locationCode="10" channelCode="HHZ"/>
      <filterID>BW(4,2.5,15)</filterID>
      <methodID>AIC</methodID>
      <phaseHint>P</phaseHint>
      <evaluationMode>automatic</evaluationMode>
      <creationInfo>
        <agencyID>WEL(GNS_Primary)</agencyID>
        <author>scautopick@akeqp01.geonet.org.nz</author>
        <creationTime>2015-10-12T08:05:33.30496Z</creationTime>
      </creationInfo>
    </pick>
    <pick publicID="Pick#20151012224035.062104.152530">
      <time>
        <value>2015-10-12T08:05:13.128414Z</value>
      </time>
      <waveformID networkCode="NZ" stationCode="PNMS" locationCode="20" channelCode="BNZ"/>
      <filterID>BW(4,2,15)</filterID>
      <phaseHint>P</phaseHint>
      <evaluationMode>manual</evaluationMode>
      <creationInfo>
        <agencyID>WEL(GNS_Primary)</agencyID>
        <author>srwgbgf@akeqx01.geonet.org.nz</author>
        <creationTime>2015-10-12T22:40:35.062168Z</creationTime>
      </creationInfo>
    </pick>
    <pick publicID="Pick#20151012224035.062206.152531">
      <time>
        <value>2015-10-12T08:05:23.026236Z</value>
      </time>
      <waveformID networkCode="NZ" stationCode="PNMS" locationCode="20" channelCode="BN2"/>
      <filterID>BW(4,2,15)</filterID>
      <phaseHint>S</phaseHint>
      <evaluationMode>manual</evaluationMode>
      <creationInfo>
        <agencyID>WEL(GNS_Primary)</agencyID>
        <author>srwgbgf@akeqx01.geonet.org.nz</author>
        <creationTime>2015-10-12T22:40:35.062259Z</creationTime>
      </creationInfo>
    </pick>
    <pick publicID="20151012.080514.92-AIC-NZ.TMWZ.10.EHZ">
      <time>
        <value>2015-10-12T08:05:14.928393Z</value>
      </time>
      <waveformID networkCode="NZ" stationCode="TMWZ" locationCode="10" channelCode="EHZ"/>
      <filterID>BW(4,2.5,15)</filterID>
      <methodID>AIC</methodID>
      <phaseHint>P</phaseHint>
      <evaluationMode>automatic</evaluationMode>
      <creationInfo>
        <agencyID>WEL(GNS_Primary)</agencyID>
        <author>scautopick@akeqp01.geonet.org.nz</author>
        <creationTime>2015-10-12T08:05:24.345474Z</creationTime>
      </creationInfo>
    </pick>
    <pick publicID="20151012.080515.15-AIC-NZ.PNHZ.10.EHZ">
      <time>
        <value>2015-10-12T08:05:15.158393Z</value>
      </time>
      <waveformID networkCode="NZ" stationCode="PNHZ" locationCode="10" channelCode="EHZ"/>
      <filterID>BW(4,2.5,15)</filterID>
      <methodID>AIC</methodID>
      <phaseHint>P</phaseHint>
      <evaluationMode>automatic</evaluationMode>
      <creationInfo>
        <agencyID>WEL(GNS_Primary)</agencyID>
        <author>scautopick@akeqp01.geonet.org.nz</author>
        <creationTime>2015-10-12T08:05:33.394868Z</creationTime>
      </creationInfo>
    </pick>
    <pick publicID="20151012.080515.09-AIC-NZ.PXZ.10.HHZ">
      <time>
        <value>2015-10-12T08:05:15.098393Z</value>
      </time>
      <waveformID networkCode="NZ" stationCode="PXZ" locationCode="10" channelCode="HHZ"/>
      <filterID>BW(4,2.5,15)</filterID>
      <methodID>AIC</methodID>
      <phaseHint>P</phaseHint>
      <evaluationMode>automatic</evaluationMode>
      <creationInfo>
        <agencyID>WEL(GNS_Primary)</agencyID>
        <author>scautopick@akeqp01.geonet.org.nz</author>
        <creationTime>2015-10-12T08:05:26.05288Z</creationTime>
      </creationInfo>
    </pick>
    <pick publicID="20151012.080515.89-AIC-NZ.HOWZ.10.EHZ">
      <time>
        <value>2015-10-12T08:05:15.898392Z</value>
      </time>
      <waveformID networkCode="NZ" stationCode="HOWZ" locationCode="10" channelCode="EHZ"/>
      <filterID>BW(4,2.5,15)</filterID>
      <methodID>AIC</methodID>
      <phaseHint>P</phaseHint>
      <evaluationMode>automatic</evaluationMode>
      <creationInfo>
        <agencyID>WEL(GNS_Primary)</agencyID>
        <author>scautopick@akeqp01.geonet.org.nz</author>
        <creationTime>2015-10-12T08:05:25.451533Z</creationTime>
      </creationInfo>
    </pick>
    <pick publicID="20151012.080519.29-AIC-NZ.OHWZ.10.EHZ">
      <time>
        <value>2015-10-12T08:05:19.298393Z</value>
      </time>
      <waveformID networkCode="NZ" stationCode="OHWZ" locationCode="10" channelCode="EHZ"/>
      <filterID>BW(4,2.5,15)</filterID>
      <methodID>AIC</methodID>
      <phaseHint>P</phaseHint>
      <evaluationMode>automatic</evaluationMode>
      <creationInfo>
        <agencyID>WEL(GNS_Primary)</agencyID>
        <author>scautopick@akeqp01.geonet.org.nz</author>
        <creationTime>2015-10-12T08:05:41.942606Z</creationTime>
      </creationInfo>
    </pick>
    <pick publicID="20151012.080517.74-AIC-NZ.MTW.10.EHZ">
      <time>
        <value>2015-10-12T08:05:17.748396Z</value>
      </time>
      <waveformID networkCode="NZ" stationCode="MTW" locationCode="10" channelCode="EHZ"/>
      <filterID>BW(4,2.5,15)</filterID>
      <methodID>AIC</methodID>
      <phaseHint>P</phaseHint>
      <evaluationMode>automatic</evaluationMode>
      <creationInfo>
        <agencyID>WEL(GNS_Primary)</agencyID>
        <author>scautopick@akeqp01.geonet.org.nz</author>
        <creationTime>2015-10-12T08:05:28.163847Z</creationTime>
      </creationInfo>
    </pick>
    <pick publicID="20151012.080518.28-AIC-NZ.KAHZ.10.EHZ">
      <time>
        <value>2015-10-12T08:05:18.288393Z</value>
      </time>
      <waveformID networkCode="NZ" stationCode="KAHZ" locationCode="10" channelCode="EHZ"/>
      <filterID>BW(4,2.5,15)</filterID>
      <methodID>AIC</methodID>
      <phaseHint>P</phaseHint>
      <evaluationMode>automatic</evaluationMode>
      <creationInfo>
        <agencyID>WEL(GNS_Primary)</agencyID>
        <author>scautopick@akeqp01.geonet.org.nz</author>
        <creationTime>2015-10-12T08:05:27.160537Z</creationTime>
      </creationInfo>
    </pick>
    <pick publicID="20151012.080518.93-AIC-NZ.OGWZ.10.EHZ">
      <time>
        <value>2015-10-12T08:05:18.93839Z</value>
      </time>
      <waveformID networkCode="NZ" stationCode="OGWZ" locationCode="10" channelCode="EHZ"/>
      <filterID>BW(4,2.5,15)</filterID>
      <methodID>AIC</methodID>
      <phaseHint>P</phaseHint>
      <evaluationMode>automatic</evaluationMode>
      <creationInfo>
        <agencyID>WEL(GNS_Primary)</agencyID>
        <author>scautopick@akeqp01.geonet.org.nz</author>
        <creationTime>2015-10-12T08:05:28.180155Z</creationTime>
      </creationInfo>
    </pick>
    <pick publicID="20151012.080519.20-AIC-NZ.KRHZ.10.EHZ">
      <time>
        <value>2015-10-12T08:05:19.208392Z</value>
      </time>
      <waveformID networkCode="NZ" stationCode="KRHZ" locationCode="10" channelCode="EHZ"/>
      <filterID>BW(4,2.5,15)</filterID>
      <methodID>AIC</methodID>
      <phaseHint>P</phaseHint>
      <evaluationMode>automatic</evaluationMode>
      <creationInfo>
        <agencyID>WEL(GNS_Primary)</agencyID>
        <author>scautopick@akeqp01.geonet.org.nz</author>
