<?xml version="1.0" encoding="UTF-8"?>
<seiscomp xmlns="http://geofon.gfz-potsdam.de/ns/seiscomp3-schema/0.7" version="0.7">
  <EventParameters>
    <pick publicID="20160531.015029.52-AIC-NZ.MLZ.10.HHZ">
      <time>
        <value>2016-05-31T01:50:29.528394Z</value>
      </time>
      <waveformID networkCode="NZ" stationCode="MLZ" locationCode="10" channelCode="HHZ"/>
      <filterID>BW(4,2.5,15)</filterID>
      <methodID>AIC</methodID>
      <phaseHint>P</phaseHint>
      <evaluationMode>automatic</evaluationMode>
      <creationInfo>
        <agencyID>WEL(GNS_Test)</agencyID>
        <author>scautopick@eceqp01.geonet.org.nz</author>
        <creationTime>2016-05-31T01:50:39.664652Z</creationTime>
      </creationInfo>
    </pick>
    <pick publicID="20160531.015030.09-AIC-NZ.MSZ.10.HHZ">
      <time>
        <value>2016-05-31T01:50:30.09839Z</value>
      </time>
      <waveformID networkCode="NZ" stationCode="MSZ" locationCode="10" channelCode="HHZ"/>
      <filterID>BW(4,2.5,15)</filterID>
      <methodID>AIC</methodID>
      <phaseHint>P</phaseHint>
      <evaluationMode>automatic</evaluationMode>
      <creationInfo>
        <agencyID>WEL(GNS_Test)</agencyID>
        <author>scautopick@eceqp01.geonet.org.nz</author>
        <creationTime>2016-05-31T01:50:40.065949Z</creationTime>
      </creationInfo>
    </pick>
    <pick publicID="20160531.015027.54-AIC-NZ.DCZ.10.HHZ">
      <time>
        <value>2016-05-31T01:50:27.543128Z</value>
      </time>
      <waveformID networkCode="NZ" stationCode="DCZ" locationCode="10" channelCode="HHZ"/>
      <filterID>BW(4,2.5,15)</filterID>
      <methodID>AIC</methodID>
      <phaseHint>P</phaseHint>
      <evaluationMode>automatic</evaluationMode>
      <creationInfo>
        <agencyID>WEL(GNS_Test)</agencyID>
        <author>scautopick@eceqp01.geonet.org.nz</author>
        <creationTime>2016-05-31T01:50:37.658027Z</creationTime>
      </creationInfo>
    </pick>
    <pick publicID="Pick#20160601035606.058593.50079">
      <time>
        <value>2016-05-31T01:50:39.654568Z</value>
      </time>
      <waveformID networkCode="NZ" stationCode="DCZ" locationCode="10" channelCode="HHN"/>
      <filterID>BW(4,2,15)</filterID>
      <phaseHint>S</phaseHint>
      <evaluationMode>manual</evaluationMode>
      <creationInfo>
        <agencyID>WEL(GNS_Test)</agencyID>
        <author>salichon@eceqx01.geonet.org.nz</author>
        <creationTime>2016-06-01T03:56:06.058801Z</creationTime>
      </creationInfo>
    </pick>
    <pick publicID="20160531.015031.66-AIC-NZ.WHZ.10.HHZ">
      <time>
        <value>2016-05-31T01:50:31.663133Z</value>
      </time>
      <waveformID networkCode="NZ" stationCode="WHZ" locationCode="10" channelCode="HHZ"/>
      <filterID>BW(4,2.5,15)</filterID>
      <methodID>AIC</methodID>
      <phaseHint>P</phaseHint>
      <evaluationMode>automatic</evaluationMode>
      <creationInfo>
        <agencyID>WEL(GNS_Test)</agencyID>
        <author>scautopick@eceqp01.geonet.org.nz</author>
        <creationTime>2016-05-31T01:50:42.976494Z</creationTime>
      </creationInfo>
    </pick>
    <pick publicID="20160531.015035.74-AIC-NZ.WKZ.10.HHZ">
      <time>
        <value>2016-05-31T01:50:35.748392Z</value>
      </time>
      <waveformID networkCode="NZ" stationCode="WKZ" locationCode="10" channelCode="HHZ"/>
      <filterID>BW(4,2.5,15)</filterID>
      <methodID>AIC</methodID>
      <phaseHint>P</phaseHint>
      <evaluationMode>automatic</evaluationMode>
      <creationInfo>
        <agencyID>WEL(GNS_Test)</agencyID>
        <author>scautopick@eceqp01.geonet.org.nz</author>
        <creationTime>2016-05-31T01:50:46.990657Z</creationTime>
      </creationInfo>
    </pick>
    <pick publicID="Pick#20160601035606.058943.50080">
      <time>
        <value>2016-05-31T01:50:53.752619Z</value>
      </time>
      <waveformID networkCode="NZ" stationCode="WKZ" locationCode="10" channelCode="HHN"/>
      <filterID>BW(4,2,15)</filterID>
      <phaseHint>S</phaseHint>
      <evaluationMode>manual</evaluationMode>
      <creationInfo>
        <agencyID>WEL(GNS_Test)</agencyID>
        <author>salichon@eceqx01.geonet.org.nz</author>
        <creationTime>2016-06-01T03:56:06.058999Z</creationTime>
      </creationInfo>
    </pick>
    <pick publicID="20160531.015037.28-AIC-NZ.EAZ.10.HHZ">
      <time>
        <value>2016-05-31T01:50:37.283132Z</value>
      </time>
      <waveformID networkCode="NZ" stationCode="EAZ" locationCode="10" channelCode="HHZ"/>
      <filterID>BW(4,2.5,15)</filterID>
      <methodID>AIC</methodID>
      <phaseHint>P</phaseHint>
      <evaluationMode>automatic</evaluationMode>
      <creationInfo>
        <agencyID>WEL(GNS_Test)</agencyID>
        <author>scautopick@eceqp01.geonet.org.nz</author>
        <creationTime>2016-05-31T01:50:48.397786Z</creationTime>
      </creationInfo>
    </pick>
    <pick publicID="20160531.015033.81-AIC-NZ.PYZ.10.HHZ">
      <time>
        <value>2016-05-31T01:50:33.818393Z</value>
      </time>
      <waveformID networkCode="NZ" stationCode="PYZ" locationCode="10" channelCode="HHZ"/>
      <filterID>BW(4,2.5,15)</filterID>
      <methodID>AIC</methodID>
      <phaseHint>P</phaseHint>
      <evaluationMode>automatic</evaluationMode>
      <creationInfo>
        <agencyID>WEL(GNS_Test)</agencyID>
        <author>scautopick@eceqp01.geonet.org.nz</author>
        <creationTime>2016-05-31T02:15:43.448735Z</creationTime>
      </creationInfo>
    </pick>
    <pick publicID="20160531.015038.10-AIC-NZ.JCZ.10.HHZ">
      <time>
        <value>2016-05-31T01:50:38.108394Z</value>
      </time>
      <waveformID networkCode="NZ" stationCode="JCZ" locationCode="10" channelCode="HHZ"/>
      <filterID>BW(4,2.5,15)</filterID>
      <methodID>AIC</methodID>
      <phaseHint>P</phaseHint>
      <evaluationMode>automatic</evaluationMode>
      <creationInfo>
        <agencyID>WEL(GNS_Test)</agencyID>
        <author>scautopick@eceqp01.geonet.org.nz</author>
        <creationTime>2016-05-31T01:50:56.828172Z</creationTime>
      </creationInfo>
    </pick>
    <pick publicID="20160531.015042.04-AIC-NZ.TUZ.10.HHZ">
      <time>
        <value>2016-05-31T01:50:42.048401Z</value>
      </time>
      <waveformID networkCode="NZ" stationCode="TUZ" locationCode="10" channelCode="HHZ"/>
      <filterID>BW(4,2.5,15)</filterID>
      <methodID>AIC</methodID>
      <phaseHint>P</phaseHint>
      <evaluationMode>automatic</evaluationMode>
      <creationInfo>
        <agencyID>WEL(GNS_Test)</agencyID>
        <author>scautopick@eceqp01.geonet.org.nz</author>
        <creationTime>2016-05-31T01:50:52.511423Z</creationTime>
      </creationInfo>
    </pick>
    <pick publicID="Pick#20160601035606.059056.50081">
      <time>
        <value>2016-05-31T01:51:03.449015Z</value>
      </time>
      <waveformID networkCode="NZ" stationCode="TUZ" locationCode="10" channelCode="HHN"/>
      <filterID>BW(4,2,15)</filterID>
      <phaseHint>S</phaseHint>
      <evaluationMode>manual</evaluationMode>
      <creationInfo>
        <agencyID>WEL(GNS_Test)</agencyID>
        <author>salichon@eceqx01.geonet.org.nz</author>
        <creationTime>2016-06-01T03:56:06.059116Z</creationTime>
      </creationInfo>
    </pick>
    <pick publicID="20160531.015042.89-AIC-NZ.SYZ.10.HHZ">
      <time>
        <value>2016-05-31T01:50:42.898392Z</value>
      </time>
      <waveformID networkCode="NZ" stationCode="SYZ" locationCode="10" channelCode="HHZ"/>
      <filterID>BW(4,2.5,15)</filterID>
      <methodID>AIC</methodID>
      <phaseHint>P</phaseHint>
      <evaluationMode>automatic</evaluationMode>
      <creationInfo>
        <agencyID>WEL(GNS_Test)</agencyID>
        <author>scautopick@eceqp01.geonet.org.nz</author>
        <creationTime>2016-05-31T01:50:54.318569Z</creationTime>
      </creationInfo>
    </pick>
    <pick publicID="Pick#20160601035606.059163.50082">
      <time>
        <value>2016-05-31T01:51:05.617949Z</value>
      </time>
      <waveformID networkCode="NZ" stationCode="SYZ" locationCode="10" channelCode="HHN"/>
      <filterID>BW(4,2,15)</filterID>
      <phaseHint>S</phaseHint>
      <evaluationMode>manual</evaluationMode>
      <creationInfo>
        <agencyID>WEL(GNS_Test)</agencyID>
        <author>salichon@eceqx01.geonet.org.nz</author>
        <creationTime>2016-06-01T03:56:06.059233Z</creationTime>
      </creationInfo>
    </pick>
    <pick publicID="20160531.015040.93-AIC-NZ.APZ.10.HHZ">
      <time>
        <value>2016-05-31T01:50:40.938391Z</value>
      </time>
      <waveformID networkCode="NZ" stationCode="APZ" locationCode="10" channelCode="HHZ"/>
      <filterID>BW(4,2.5,15)</filterID>
      <methodID>AIC</methodID>
      <phaseHint>P</phaseHint>
      <evaluationMode>automatic</evaluationMode>
      <creationInfo>
        <agencyID>WEL(GNS_Test)</agencyID>
        <author>scautopick@eceqp01.geonet.org.nz</author>
        <creationTime>2016-05-31T01:50:53.315003Z</creationTime>
      </creationInfo>
    </pick>
    <pick publicID="20160531.015045.36-AIC-NZ.LBZ.10.HHZ">
      <time>
        <value>2016-05-31T01:50:45.363126Z</value>
      </time>
      <waveformID networkCode="NZ" stationCode="LBZ" locationCode="10" channelCode="HHZ"/>
      <filterID>BW(4,2.5,15)</filterID>
      <methodID>AIC</methodID>
      <phaseHint>P</phaseHint>
      <evaluationMode>automatic</evaluationMode>
      <creationInfo>
        <agencyID>WEL(GNS_Test)</agencyID>
        <author>scautopick@eceqp01.geonet.org.nz</author>
        <creationTime>2016-05-31T01:50:56.326641Z</creationTime>
      </creationInfo>
    </pick>
    <pick publicID="20160531.015047.88-AIC-NZ.ODZ.10.HHZ">
      <time>
        <value>2016-05-31T01:50:47.888393Z</value>
      </time>
      <waveformID networkCode="NZ" stationCode="ODZ" locationCode="10" channelCode="HHZ"/>
      <filterID>BW(4,2.5,15)</filterID>
      <methodID>AIC</methodID>
      <phaseHint>P</phaseHint>
      <evaluationMode>automatic</evaluationMode>
      <creationInfo>
        <agencyID>WEL(GNS_Test)</agencyID>
        <author>scautopick@eceqp01.geonet.org.nz</author>
        <creationTime>2016-05-31T01:50:57.531089Z</creationTime>
      </creationInfo>
    </pick>
    <pick publicID="20160531.015049.44-AIC-NZ.OPZ.10.HHZ">
      <time>
        <value>2016-05-31T01:50:49.448392Z</value>
      </time>
      <waveformID networkCode="NZ" stationCode="OPZ" locationCode="10" channelCode="HHZ"/>
      <filterID>BW(4,2.5,15)</filterID>
      <methodID>AIC</methodID>
      <phaseHint>P</phaseHint>
      <evaluationMode>automatic</evaluationMode>
      <creationInfo>
        <agencyID>WEL(GNS_Test)</agencyID>
        <author>scautopick@eceqp01.geonet.org.nz</author>
        <creationTime>2016-05-31T01:50:59.1442Z</creationTime>
      </creationInfo>
    </pick>
    <pick publicID="20160531.015048.15-AIC-NZ.FOZ.10.HHZ">
      <time>
        <value>2016-05-31T01:50:48.150085Z</value>
      </time>
      <waveformID networkCode="NZ" stationCode="FOZ" locationCode="10" channelCode="HHZ"/>
      <filterID>BW(4,2.5,15)</filterID>
      <methodID>AIC</methodID>
      <phaseHint>P</phaseHint>
      <evaluationMode>automatic</evaluationMode>
      <creationInfo>
        <agencyID>WEL(GNS_Test)</agencyID>
        <author>scautopick@eceqp01.geonet.org.nz</author>
        <creationTime>2016-05-31T01:50:59.947122Z</creationTime>
      </creationInfo>
    </pick>
    <pick publicID="20160531.015052.22-AIC-NZ.CVZ.10.HHZ">
      <time>
        <value>2016-05-31T01:50:52.22313Z</value>
      </time>
      <waveformID networkCode="NZ" stationCode="CVZ" locationCode="10" channelCode="HHZ"/>
      <filterID>BW(4,2.5,15)</filterID>
      <methodID>AIC</methodID>
      <phaseHint>P</phaseHint>
      <evaluationMode>automatic</evaluationMode>
      <creationInfo>
        <agencyID>WEL(GNS_Test)</agencyID>
        <author>scautopick@eceqp01.geonet.org.nz</author>
        <creationTime>2016-05-31T01:51:04.785445Z</creationTime>
      </creationInfo>
    </pick>
    <pick publicID="20160531.015053.07-AIC-NZ.GCSZ.10.EHZ">
      <time>
        <value>2016-05-31T01:50:53.078396Z</value>
      </time>
      <waveformID networkCode="NZ" stationCode="GCSZ" locationCode="10" channelCode="EHZ"/>
      <filterID>BW(4,2.5,15)</filterID>
      <methodID>AIC</methodID>
      <phaseHint>P</phaseHint>
      <evaluationMode>automatic</evaluationMode>
      <creationInfo>
        <agencyID>WEL(GNS_Test)</agencyID>
        <author>scautopick@eceqp01.geonet.org.nz</author>
        <creationTime>2016-05-31T01:51:04.382955Z</creationTime>
      </creationInfo>
    </pick>
    <pick publicID="20160531.015055.24-AIC-NZ.ARCZ.10.EHZ">
      <time>
        <value>2016-05-31T01:50:55.243129Z</value>
      </time>
      <waveformID networkCode="NZ" stationCode="ARCZ" locationCode="10" channelCode="EHZ"/>
      <filterID>BW(4,2.5,15)</filterID>
      <methodID>AIC</methodID>
      <phaseHint>P</phaseHint>
      <evaluationMode>automatic</evaluationMode>
      <creationInfo>
        <agencyID>WEL(GNS_Test)</agencyID>
        <author>scautopick@eceqp01.geonet.org.nz</author>
        <creationTime>2016-05-31T01:51:04.483085Z</creationTime>
      </creationInfo>
    </pick>
    <pick publicID="20160531.015055.85-AIC-NZ.RPZ.10.HHZ">
      <time>
        <value>2016-05-31T01:50:55.85839Z</value>
      </time>
      <waveformID networkCode="NZ" stationCode="RPZ" locationCode="10" channelCode="HHZ"/>
      <filterID>BW(4,2.5,15)</filterID>
      <methodID>AIC</methodID>
      <phaseHint>P</phaseHint>
      <evaluationMode>automatic</evaluationMode>
      <creationInfo>
        <agencyID>WEL(GNS_Test)</agencyID>
        <author>scautopick@eceqp01.geonet.org.nz</author>
        <creationTime>2016-05-31T01:51:06.092663Z</creationTime>
      </creationInfo>
    </pick>
    <pick publicID="20160531.015057.95-AIC-NZ.WVZ.10.HHZ">
      <time>
        <value>2016-05-31T01:50:57.958393Z</value>
      </time>
      <waveformID networkCode="NZ" stationCode="WVZ" locationCode="10" channelCode="HHZ"/>
      <filterID>BW(4,2.5,15)</filterID>
      <methodID>AIC</methodID>
      <phaseHint>P</phaseHint>
      <evaluationMode>automatic</evaluationMode>
      <creationInfo>
        <agencyID>WEL(GNS_Test)</agencyID>
        <author>scautopick@eceqp01.geonet.org.nz</author>
        <creationTime>2016-05-31T01:51:09.915459Z</creationTime>
      </creationInfo>
    </pick>
    <pick publicID="20160531.015101.31-AIC-NZ.WACZ.10.EHZ">
      <time>
        <value>2016-05-31T01:51:01.318392Z</value>
      </time>
      <waveformID networkCode="NZ" stationCode="WACZ" locationCode="10" channelCode="EHZ"/>
      <filterID>BW(4,2.5,15)</filterID>
      <methodID>AIC</methodID>
      <phaseHint>P</phaseHint>
      <evaluationMode>automatic</evaluationMode>
      <creationInfo>
        <agencyID>WEL(GNS_Test)</agencyID>
        <author>scautopick@eceqp01.geonet.org.nz</author>
        <creationTime>2016-05-31T01:51:13.32868Z</creationTime>
      </creationInfo>
    </pick>
    <pick publicID="20160531.015103.39-AIC-NZ.MHCZ.10.EHZ">
      <time>
        <value>2016-05-31T01:51:03.393129Z</value>
      </time>
      <waveformID networkCode="NZ" stationCode="MHCZ" locationCode="10" channelCode="EHZ"/>
      <filterID>BW(4,2.5,15)</filterID>
      <methodID>AIC</methodID>
      <phaseHint>P</phaseHint>
      <evaluationMode>automatic</evaluationMode>
      <creationInfo>
        <agencyID>WEL(GNS_Test)</agencyID>
        <author>scautopick@eceqp01.geonet.org.nz</author>
        <creationTime>2016-05-31T01:51:13.529422Z</creationTime>
      </creationInfo>
    </pick>
    <pick publicID="20160531.015105.30-AIC-NZ.RACZ.10.EHZ">
      <time>
        <value>2016-05-31T01:51:05.308393Z</value>
      </time>
      <waveformID networkCode="NZ" stationCode="RACZ" locationCode="10" channelCode="EHZ"/>
      <filterID>BW(4,2.5,15)</filterID>
      <methodID>AIC</methodID>
      <phaseHint>P</phaseHint>
      <evaluationMode>automatic</evaluationMode>
      <creationInfo>
        <agencyID>WEL(GNS_Test)</agencyID>
        <author>scautopick@eceqp01.geonet.org.nz</author>
        <creationTime>2016-05-31T01:51:16.250197Z</creationTime>
      </creationInfo>
    </pick>
    <pick publicID="20160531.015105.76-AIC-NZ.OXZ.10.HHZ">
      <time>
        <value>2016-05-31T01:51:05.763132Z</value>
      </time>
      <waveformID networkCode="NZ" stationCode="OXZ" locationCode="10" channelCode="HHZ"/>
      <filterID>BW(4,2.5,15)</filterID>
      <methodID>AIC</methodID>
      <phaseHint>P</phaseHint>
      <evaluationMode>automatic</evaluationMode>
      <creationInfo>
        <agencyID>WEL(GNS_Test)</agencyID>
        <author>scautopick@eceqp01.geonet.org.nz</author>
        <creationTime>2016-05-31T01:51:18.749755Z</creationTime>
      </creationInfo>
    </pick>
    <pick publicID="20160531.015106.45-AIC-NZ.INZ.10.HHZ">
      <time>
        <value>2016-05-31T01:51:06.453125Z</value>
      </time>
      <waveformID networkCode="NZ" stationCode="INZ" locationCode="10" channelCode="HHZ"/>
      <filterID>BW(4,2.5,15)</filterID>
      <methodID>AIC</methodID>
      <phaseHint>P</phaseHint>
      <evaluationMode>automatic</evaluationMode>
      <creationInfo>
        <agencyID>WEL(GNS_Test)</agencyID>
        <author>scautopick@eceqp01.geonet.org.nz</author>
        <creationTime>2016-05-31T01:51:20.958655Z</creationTime>
      </creationInfo>
    </pick>
    <pick publicID="20160531.015109.94-AIC-NZ.MQZ.10.HHZ">
      <time>
        <value>2016-05-31T01:51:09.948391Z</value>
      </time>
      <waveformID networkCode="NZ" stationCode="MQZ" locationCode="10" channelCode="HHZ"/>
      <filterID>BW(4,2.5,15)</filterID>
      <methodID>AIC</methodID>
      <phaseHint>P</phaseHint>
      <evaluationMode>automatic</evaluationMode>
      <creationInfo>
        <agencyID>WEL(GNS_Test)</agencyID>
        <author>scautopick@eceqp01.geonet.org.nz</author>
        <creationTime>2016-05-31T01:51:25.777504Z</creationTime>
      </creationInfo>
    </pick>
    <pick publicID="20160531.015111.64-AIC-NZ.AKCZ.10.EHZ">
      <time>
        <value>2016-05-31T01:51:11.6484Z</value>
      </time>
      <waveformID networkCode="NZ" stationCode="AKCZ" locationCode="10" channelCode="EHZ"/>
      <filterID>BW(4,2.5,15)</filterID>
      <methodID>AIC</methodID>
      <phaseHint>P</phaseHint>
      <evaluationMode>automatic</evaluationMode>
      <creationInfo>
        <agencyID>WEL(GNS_Test)</agencyID>
        <author>scautopick@eceqp01.geonet.org.nz</author>
        <creationTime>2016-05-31T01:51:24.272713Z</creationTime>
      </creationInfo>
    </pick>
    <pick publicID="20160531.015112.86-AIC-NZ.AMCZ.10.EHZ">
      <time>
        <value>2016-05-31T01:51:12.868404Z</value>
      </time>
      <waveformID networkCode="NZ" stationCode="AMCZ" locationCode="10" channelCode="EHZ"/>
      <filterID>BW(4,2.5,15)</filterID>
      <methodID>AIC</methodID>
      <phaseHint>P</phaseHint>
      <evaluationMode>automatic</evaluationMode>
      <creationInfo>
        <agencyID>WEL(GNS_Test)</agencyID>
        <author>scautopick@eceqp01.geonet.org.nz</author>
        <creationTime>2016-05-31T01:51:23.27358Z</creationTime>
      </creationInfo>
    </pick>
    <pick publicID="20160531.015111.60-AIC-NZ.LTZ.10.HHZ">
      <time>
        <value>2016-05-31T01:51:11.608396Z</value>
      </time>
      <waveformID networkCode="NZ" stationCode="LTZ" locationCode="10" channelCode="HHZ"/>
      <filterID>BW(4,2.5,15)</filterID>
      <methodID>AIC</methodID>
      <phaseHint>P</phaseHint>
      <evaluationMode>automatic</evaluationMode>
      <creationInfo>
        <agencyID>WEL(GNS_Test)</agencyID>
        <author>scautopick@eceqp01.geonet.org.nz</author>
        <creationTime>2016-05-31T01:51:20.557686Z</creationTime>
      </creationInfo>
    </pick>
    <pick publicID="20160531.015114.01-AIC-NZ.OKCZ.10.EHZ">
      <time>
        <value>2016-05-31T01:51:14.018396Z</value>
      </time>
