<?xml version="1.0" encoding="UTF-8"?>
<seiscomp xmlns="http://geofon.gfz-potsdam.de/ns/seiscomp3-schema/0.13" version="0.13">
  <EventParameters>
    <pick publicID="20240507.082412.10-AIC-NZ.ARAZ.10.EHZ">
      <time>
        <value>2024-05-07T08:24:12.1Z</value>
      </time>
      <waveformID networkCode="NZ" stationCode="ARAZ" locationCode="10" channelCode="EHZ"/>
      <filterID>BW(4,2.5,15)</filterID>
      <methodID>AIC</methodID>
      <phaseHint>P</phaseHint>
      <evaluationMode>automatic</evaluationMode>
      <creationInfo>
        <agencyID>WEL(GNS_Test)</agencyID>
        <author>scautopick@eceqp06.geonet.org.nz</author>
        <creationTime>2024-05-07T08:24:22.474553Z</creationTime>
      </creationInfo>
      <comment>
        <text>19.834430014354417</text>
        <id>SNR</id>
      </comment>
    </pick>
    <pick publicID="20240507.082412.77-AIC-NZ.WPRZ.10.EHZ">
      <time>
        <value>2024-05-07T08:24:12.77Z</value>
      </time>
      <waveformID networkCode="NZ" stationCode="WPRZ" locationCode="10" channelCode="EHZ"/>
      <filterID>BW(4,2.5,15)</filterID>
      <methodID>AIC</methodID>
      <phaseHint>P</phaseHint>
      <evaluationMode>automatic</evaluationMode>
      <creationInfo>
        <agencyID>WEL(GNS_Test)</agencyID>
        <author>scautopick@eceqp06.geonet.org.nz</author>
        <creationTime>2024-05-07T08:24:23.980015Z</creationTime>
      </creationInfo>
      <comment>
        <text>23.79178689946981</text>
        <id>SNR</id>
      </comment>
    </pick>
    <pick publicID="20240507.082413.00-AIC-NZ.ALRZ.10.EHZ">
      <time>
        <value>2024-05-07T08:24:13.0000Z</value>
      </time>
      <waveformID networkCode="NZ" stationCode="ALRZ" locationCode="10" channelCode="EHZ"/>
      <filterID>BW(4,2.5,15)</filterID>
      <methodID>AIC</methodID>
      <phaseHint>P</phaseHint>
      <evaluationMode>automatic</evaluationMode>
      <creationInfo>
        <agencyID>WEL(GNS_Test)</agencyID>
        <author>scautopick@eceqp06.geonet.org.nz</author>
        <creationTime>2024-05-07T08:24:25.987677Z</creationTime>
      </creationInfo>
      <comment>
        <text>36.56153409317519</text>
        <id>SNR</id>
      </comment>
    </pick>
    <pick publicID="20240507.082414.37-AIC-NZ.PRRZ.10.EHZ">
      <time>
        <value>2024-05-07T08:24:14.37Z</value>
      </time>
      <waveformID networkCode="NZ" stationCode="PRRZ" locationCode="10" channelCode="EHZ"/>
      <filterID>BW(4,2.5,15)</filterID>
      <methodID>AIC</methodID>
      <phaseHint>P</phaseHint>
      <evaluationMode>automatic</evaluationMode>
      <creationInfo>
        <agencyID>WEL(GNS_Test)</agencyID>
        <author>scautopick@eceqp06.geonet.org.nz</author>
        <creationTime>2024-05-07T08:24:25.485678Z</creationTime>
      </creationInfo>
      <comment>
        <text>25.544627602654597</text>
        <id>SNR</id>
      </comment>
    </pick>
    <pick publicID="20240507.082417.15-AIC-NZ.HSRZ.10.EHZ">
      <time>
        <value>2024-05-07T08:24:17.15Z</value>
      </time>
      <waveformID networkCode="NZ" stationCode="HSRZ" locationCode="10" channelCode="EHZ"/>
      <filterID>BW(4,2.5,15)</filterID>
      <methodID>AIC</methodID>
      <phaseHint>P</phaseHint>
      <evaluationMode>automatic</evaluationMode>
      <creationInfo>
        <agencyID>WEL(GNS_Test)</agencyID>
        <author>scautopick@eceqp06.geonet.org.nz</author>
        <creationTime>2024-05-07T08:24:31.508588Z</creationTime>
      </creationInfo>
      <comment>
        <text>11.799742907757528</text>
        <id>SNR</id>
      </comment>
    </pick>
    <pick publicID="20240507.082421.40-AIC-NZ.MTHZ.10.EHZ">
      <time>
        <value>2024-05-07T08:24:21.4Z</value>
      </time>
      <waveformID networkCode="NZ" stationCode="MTHZ" locationCode="10" channelCode="EHZ"/>
      <filterID>BW(4,2.5,15)</filterID>
      <methodID>AIC</methodID>
      <phaseHint>P</phaseHint>
      <evaluationMode>automatic</evaluationMode>
      <creationInfo>
        <agencyID>WEL(GNS_Test)</agencyID>
        <author>scautopick@eceqp06.geonet.org.nz</author>
        <creationTime>2024-05-07T08:24:35.020229Z</creationTime>
      </creationInfo>
      <comment>
        <text>12.055562115057384</text>
        <id>SNR</id>
      </comment>
    </pick>
    <pick publicID="20240507.082422.06-AIC-NZ.BKZ.10.HHZ">
      <time>
        <value>2024-05-07T08:24:22.06Z</value>
      </time>
      <waveformID networkCode="NZ" stationCode="BKZ" locationCode="10" channelCode="HHZ"/>
      <filterID>BW(4,2.5,15)</filterID>
      <methodID>AIC</methodID>
      <phaseHint>P</phaseHint>
      <evaluationMode>automatic</evaluationMode>
      <creationInfo>
        <agencyID>WEL(GNS_Test)</agencyID>
        <author>scautopick@eceqp06.geonet.org.nz</author>
        <creationTime>2024-05-07T08:24:37.52965Z</creationTime>
      </creationInfo>
      <comment>
        <text>12.600444520823523</text>
        <id>SNR</id>
      </comment>
    </pick>
    <pick publicID="20240507.082425.90-AIC-NZ.RAHZ.10.EHZ">
      <time>
        <value>2024-05-07T08:24:25.9Z</value>
      </time>
      <waveformID networkCode="NZ" stationCode="RAHZ" locationCode="10" channelCode="EHZ"/>
      <filterID>BW(4,2.5,15)</filterID>
      <methodID>AIC</methodID>
      <phaseHint>P</phaseHint>
      <evaluationMode>automatic</evaluationMode>
      <creationInfo>
        <agencyID>WEL(GNS_Test)</agencyID>
        <author>scautopick@eceqp06.geonet.org.nz</author>
        <creationTime>2024-05-07T08:24:40.039004Z</creationTime>
      </creationInfo>
      <comment>
        <text>5.792956408250047</text>
        <id>SNR</id>
      </comment>
    </pick>
    <pick publicID="20240507.082416.72-AIC-NZ.MTVZ.10.EHZ">
      <time>
        <value>2024-05-07T08:24:16.72Z</value>
      </time>
      <waveformID networkCode="NZ" stationCode="MTVZ" locationCode="10" channelCode="EHZ"/>
      <filterID>BW(4,2.5,15)</filterID>
      <methodID>AIC</methodID>
      <phaseHint>P</phaseHint>
      <evaluationMode>automatic</evaluationMode>
      <creationInfo>
        <agencyID>WEL(GNS_Test)</agencyID>
        <author>scautopick@eceqp06.geonet.org.nz</author>
        <creationTime>2024-05-07T08:24:37.028297Z</creationTime>
      </creationInfo>
      <comment>
        <text>9.90858313975316</text>
        <id>SNR</id>
      </comment>
    </pick>
    <pick publicID="20240507.082414.91-AIC-NZ.PREZ.10.EHZ">
      <time>
        <value>2024-05-07T08:24:14.91313Z</value>
      </time>
      <waveformID networkCode="NZ" stationCode="PREZ" locationCode="10" channelCode="EHZ"/>
      <filterID>BW(4,2.5,15)</filterID>
      <methodID>AIC</methodID>
      <phaseHint>P</phaseHint>
      <evaluationMode>automatic</evaluationMode>
      <creationInfo>
        <agencyID>WEL(GNS_Test)</agencyID>
        <author>scautopick@eceqp06.geonet.org.nz</author>
        <creationTime>2024-05-07T08:24:27.99465Z</creationTime>
      </creationInfo>
      <comment>
        <text>11.86513007017867</text>
        <id>SNR</id>
      </comment>
    </pick>
    <pick publicID="20240507.082412.71-AIC-NZ.THSZ.10.EHZ">
      <time>
        <value>2024-05-07T08:24:12.71Z</value>
      </time>
      <waveformID networkCode="NZ" stationCode="THSZ" locationCode="10" channelCode="EHZ"/>
      <filterID>BW(4,2.5,15)</filterID>
      <methodID>AIC</methodID>
      <phaseHint>P</phaseHint>
      <evaluationMode>automatic</evaluationMode>
      <creationInfo>
        <agencyID>WEL(GNS_Test)</agencyID>
        <author>scautopick@eceqp06.geonet.org.nz</author>
        <creationTime>2024-05-07T08:24:23.477661Z</creationTime>
      </creationInfo>
      <comment>
        <text>15.84969658181076</text>
        <id>SNR</id>
      </comment>
    </pick>
    <amplitude publicID="Amplitude/20240507082534.501668.37919">
      <type>ML</type>
      <amplitude>
        <value>4.460892001606508</value>
        <lowerUncertainty>0.4963567271016389</lowerUncertainty>
        <upperUncertainty>0.4963567271016398</upperUncertainty>
      </amplitude>
      <timeWindow>
        <reference>2024-05-07T08:24:18.195Z</reference>
        <begin>-11.094999</begin>
        <end>73.545</end>
      </timeWindow>
      <snr>5.014800999467099</snr>
      <pickID>20240507.082412.10-AIC-NZ.ARAZ.10.EHZ</pickID>
      <waveformID networkCode="NZ" stationCode="ARAZ" locationCode="10" channelCode="EH"/>
      <creationInfo>
        <agencyID>WEL(GNS_Test)</agencyID>
        <author>scamp@eceqp06.geonet.org.nz</author>
        <creationTime>2024-05-07T08:25:34.501716Z</creationTime>
      </creationInfo>
    </amplitude>
    <amplitude publicID="Amplitude/20240507082536.503799.37920">
      <type>ML</type>
      <amplitude>
        <value>0.9008225866586296</value>
        <lowerUncertainty>0.10861849553423208</lowerUncertainty>
        <upperUncertainty>0.10861849553423208</upperUncertainty>
      </amplitude>
      <timeWindow>
        <reference>2024-05-07T08:24:17.09Z</reference>
        <begin>-9.319999</begin>
        <end>74.37</end>
      </timeWindow>
      <snr>13.275722354675903</snr>
      <pickID>20240507.082412.77-AIC-NZ.WPRZ.10.EHZ</pickID>
      <waveformID networkCode="NZ" stationCode="WPRZ" locationCode="10" channelCode="EH"/>
      <creationInfo>
        <agencyID>WEL(GNS_Test)</agencyID>
        <author>scamp@eceqp06.geonet.org.nz</author>
        <creationTime>2024-05-07T08:25:36.503833Z</creationTime>
      </creationInfo>
    </amplitude>
    <amplitude publicID="Amplitude/20240507082541.51083.37922">
      <type>ML</type>
      <amplitude>
        <value>0.802527864284964</value>
        <lowerUncertainty>0.2751006462949439</lowerUncertainty>
        <upperUncertainty>0.2751006462949439</upperUncertainty>
      </amplitude>
      <timeWindow>
        <reference>2024-05-07T08:24:15.78Z</reference>
        <begin>-7.779999</begin>
        <end>81.3</end>
      </timeWindow>
      <snr>27.31108078455628</snr>
      <pickID>20240507.082413.00-AIC-NZ.ALRZ.10.EHZ</pickID>
      <waveformID networkCode="NZ" stationCode="ALRZ" locationCode="10" channelCode="EH"/>
      <creationInfo>
        <agencyID>WEL(GNS_Test)</agencyID>
        <author>scamp@eceqp06.geonet.org.nz</author>
        <creationTime>2024-05-07T08:25:41.510864Z</creationTime>
      </creationInfo>
    </amplitude>
    <amplitude publicID="Amplitude/20240507082544.014298.37923">
      <type>ML</type>
      <amplitude>
        <value>0.11274208610024788</value>
        <lowerUncertainty>0.029809022675782837</lowerUncertainty>
        <upperUncertainty>0.029809022675782837</upperUncertainty>
      </amplitude>
      <timeWindow>
        <reference>2024-05-07T08:24:18.115Z</reference>
        <begin>-8.744999</begin>
        <end>80.625</end>
      </timeWindow>
      <snr>6.173286111832603</snr>
      <pickID>20240507.082414.37-AIC-NZ.PRRZ.10.EHZ</pickID>
      <waveformID networkCode="NZ" stationCode="PRRZ" locationCode="10" channelCode="EH"/>
      <creationInfo>
        <agencyID>WEL(GNS_Test)</agencyID>
        <author>scamp@eceqp06.geonet.org.nz</author>
        <creationTime>2024-05-07T08:25:44.014337Z</creationTime>
      </creationInfo>
    </amplitude>
    <amplitude publicID="Amplitude/20240507082608.550476.37935">
      <type>ML</type>
      <amplitude>
        <value>0.026643368093575554</value>
        <lowerUncertainty>0.0004559793588821762</lowerUncertainty>
        <upperUncertainty>0.0004559793588821762</upperUncertainty>
      </amplitude>
      <timeWindow>
        <reference>2024-05-07T08:24:30.235Z</reference>
        <begin>-13.834999</begin>
        <end>93.025</end>
      </timeWindow>
      <snr>2.37338895531859</snr>
      <pickID>20240507.082421.40-AIC-NZ.MTHZ.10.EHZ</pickID>
      <waveformID networkCode="NZ" stationCode="MTHZ" locationCode="10" channelCode="EH"/>
      <creationInfo>
        <agencyID>WEL(GNS_Test)</agencyID>
        <author>scamp@eceqp06.geonet.org.nz</author>
        <creationTime>2024-05-07T08:26:08.550515Z</creationTime>
      </creationInfo>
    </amplitude>
    <amplitude publicID="Amplitude/20240507082610.052693.37936">
      <type>ML</type>
      <amplitude>
        <value>0.07779895907869505</value>
        <lowerUncertainty>7.845718970347915e-05</lowerUncertainty>
        <upperUncertainty>7.845718970346527e-05</upperUncertainty>
      </amplitude>
      <timeWindow>
        <reference>2024-05-07T08:25:33.975Z</reference>
        <begin>-76.914999</begin>
        <end>28.385</end>
      </timeWindow>
      <snr>1.5298644248637525</snr>
      <pickID>20240507.082422.06-AIC-NZ.BKZ.10.HHZ</pickID>
      <waveformID networkCode="NZ" stationCode="BKZ" locationCode="10" channelCode="HH"/>
      <creationInfo>
        <agencyID>WEL(GNS_Test)</agencyID>
        <author>scamp@eceqp06.geonet.org.nz</author>
        <creationTime>2024-05-07T08:26:10.052733Z</creationTime>
      </creationInfo>
    </amplitude>
    <amplitude publicID="Amplitude/20240507082621.069399.37938">
      <type>ML</type>
      <amplitude>
        <value>0.05808462282633366</value>
        <lowerUncertainty>0.009047279542568433</lowerUncertainty>
        <upperUncertainty>0.00904727954256844</upperUncertainty>
      </amplitude>
      <timeWindow>
        <reference>2024-05-07T08:24:31.475Z</reference>
        <begin>-10.574999</begin>
        <end>103.645</end>
      </timeWindow>
      <snr>1.8524602853746708</snr>
      <pickID>20240507.082425.90-AIC-NZ.RAHZ.10.EHZ</pickID>
      <waveformID networkCode="NZ" stationCode="RAHZ" locationCode="10" channelCode="EH"/>
      <creationInfo>
        <agencyID>WEL(GNS_Test)</agencyID>
        <author>scamp@eceqp06.geonet.org.nz</author>
        <creationTime>2024-05-07T08:26:21.069449Z</creationTime>
      </creationInfo>
    </amplitude>
    <amplitude publicID="Amplitude/20240507082630.279544.37944">
      <type>ML</type>
      <amplitude>
        <value>0.12319921724262875</value>
        <lowerUncertainty>0.011984695886955873</lowerUncertainty>
        <upperUncertainty>0.011984695886955887</upperUncertainty>
      </amplitude>
      <timeWindow>
        <reference>2024-05-07T08:24:22.56Z</reference>
        <begin>-10.409999</begin>
        <end>36.08</end>
      </timeWindow>
      <snr>6.777741613878842</snr>
      <pickID>20240507.082417.15-AIC-NZ.HSRZ.10.EHZ</pickID>
      <waveformID networkCode="NZ" stationCode="HSRZ" locationCode="10" channelCode="EH"/>
      <creationInfo>
        <agencyID>WEL(GNS_Test)</agencyID>
        <author>scamp@eceqp06.geonet.org.nz</author>
        <creationTime>2024-05-07T08:26:30.279581Z</creationTime>
      </creationInfo>
    </amplitude>
    <amplitude publicID="20240507.082412.10-AIC-NZ.ARAZ.10.EHZ.MLv">
      <type>MLv</type>
      <amplitude>
        <value>3.414161201904214</value>
      </amplitude>
      <timeWindow>
        <reference>2024-05-07T08:24:16.48Z</reference>
        <begin>-9.38</begin>
        <end>95.62</end>
      </timeWindow>
      <snr>4.4759538678683715</snr>
      <pickID>20240507.082412.10-AIC-NZ.ARAZ.10.EHZ</pickID>
      <waveformID networkCode="NZ" stationCode="ARAZ" locationCode="10" channelCode="EHZ"/>
      <creationInfo>
        <agencyID>WEL(GNS_Test)</agencyID>
        <author>scautopick@eceqp06.geonet.org.nz</author>
        <creationTime>2024-05-07T08:25:54.812846Z</creationTime>
      </creationInfo>
    </amplitude>
    <amplitude publicID="Amplitude/20240507082554.028914.37926">
      <type>MLv</type>
      <amplitude>
        <value>0.6619202005084016</value>
      </amplitude>
      <timeWindow>
        <reference>2024-05-07T08:24:17.88Z</reference>
        <begin>-10.11</begin>
        <end>94.89</end>
      </timeWindow>
      <snr>14.47891598680462</snr>
      <pickID>20240507.082412.77-AIC-NZ.WPRZ.10.EHZ</pickID>
      <waveformID networkCode="NZ" stationCode="WPRZ" locationCode="10" channelCode="EHZ"/>
      <creationInfo>
        <agencyID>WEL(GNS_Test)</agencyID>
        <author>scamp@eceqp06.geonet.org.nz</author>
        <creationTime>2024-05-07T08:25:54.02895Z</creationTime>
      </creationInfo>
    </amplitude>
    <amplitude publicID="20240507.082413.00-AIC-NZ.ALRZ.10.EHZ.MLv">
      <type>MLv</type>
      <amplitude>
        <value>1.121016542289534</value>
      </amplitude>
      <timeWindow>
        <reference>2024-05-07T08:24:15.72Z</reference>
        <begin>-7.72</begin>
        <end>97.28</end>
      </timeWindow>
      <snr>29.545752023840887</snr>
      <pickID>20240507.082413.00-AIC-NZ.ALRZ.10.EHZ</pickID>
      <waveformID networkCode="NZ" stationCode="ALRZ" locationCode="10" channelCode="EHZ"/>
      <creationInfo>
        <agencyID>WEL(GNS_Test)</agencyID>
        <author>scautopick@eceqp06.geonet.org.nz</author>
        <creationTime>2024-05-07T08:25:55.314861Z</creationTime>
      </creationInfo>
    </amplitude>
    <amplitude publicID="20240507.082414.37-AIC-NZ.PRRZ.10.EHZ.MLv">
      <type>MLv</type>
      <amplitude>
        <value>0.10334066870150928</value>
      </amplitude>
      <timeWindow>
        <reference>2024-05-07T08:24:18.31Z</reference>
        <begin>-8.94</begin>
        <end>96.06</end>
      </timeWindow>
      <snr>4.223420621920674</snr>
      <pickID>20240507.082414.37-AIC-NZ.PRRZ.10.EHZ</pickID>
      <waveformID networkCode="NZ" stationCode="PRRZ" locationCode="10" channelCode="EHZ"/>
      <creationInfo>
        <agencyID>WEL(GNS_Test)</agencyID>
        <author>scautopick@eceqp06.geonet.org.nz</author>
        <creationTime>2024-05-07T08:25:55.817393Z</creationTime>
      </creationInfo>
    </amplitude>
    <amplitude publicID="20240507.082417.15-AIC-NZ.HSRZ.10.EHZ.MLv">
      <type>MLv</type>
      <amplitude>
        <value>0.09175128554263902</value>
      </amplitude>
      <timeWindow>
        <reference>2024-05-07T08:24:22.19Z</reference>
        <begin>-10.04</begin>
        <end>94.96</end>
      </timeWindow>
      <snr>3.978545859797882</snr>
      <pickID>20240507.082417.15-AIC-NZ.HSRZ.10.EHZ</pickID>
      <waveformID networkCode="NZ" stationCode="HSRZ" locationCode="10" channelCode="EHZ"/>
      <creationInfo>
        <agencyID>WEL(GNS_Test)</agencyID>
        <author>scautopick@eceqp06.geonet.org.nz</author>
        <creationTime>2024-05-07T08:26:02.338874Z</creationTime>
      </creationInfo>
    </amplitude>
    <origin publicID="NLL.20240507082440.072929.9683">
      <time>
        <value>2024-05-07T08:24:09.853066Z</value>
      </time>
      <latitude>
        <value>-38.620634773178807</value>
        <uncertainty>20.788432822828636</uncertainty>
      </latitude>
      <longitude>
        <value>176.2128674424493</value>
        <uncertainty>59.63200891163431</uncertainty>
      </longitude>
      <depth>
        <value>5.1162109375</value>
        <uncertainty>47.90405410369406</uncertainty>
      </depth>
      <methodID>NonLinLoc</methodID>
      <earthModelID>nz3drx</earthModelID>
      <quality>
        <associatedPhaseCount>11</associatedPhaseCount>
        <usedPhaseCount>10</usedPhaseCount>
        <usedStationCount>10</usedStationCount>
        <standardError>0.13178423630674604</standardError>
        <azimuthalGap>76.05025526639076</azimuthalGap>
        <secondaryAzimuthalGap>103.53540022050215</secondaryAzimuthalGap>
        <groundTruthLevel>-</groundTruthLevel>
        <maximumDistance>1.7691420017250776</maximumDistance>
        <minimumDistance>0.0752301603770797</minimumDistance>
        <medianDistance>0.42073261208804774</medianDistance>
      </quality>
      <uncertainty>
        <horizontalUncertainty>91.06907028087628</horizontalUncertainty>
        <minHorizontalUncertainty>29.650226274511756</minHorizontalUncertainty>
        <maxHorizontalUncertainty>91.06907028087628</maxHorizontalUncertainty>
        <azimuthMaxHorizontalUncertainty>82.85112176801192</azimuthMaxHorizontalUncertainty>
        <confidenceEllipsoid>
          <semiMajorAxisLength>133220.60282790705</semiMajorAxisLength>
          <semiMinorAxisLength>35769.50157107233</semiMinorAxisLength>
