<?xml version="1.0" encoding="UTF-8"?>

<seiscomp xmlns="http://geofon.gfz-potsdam.de/ns/seiscomp3-schema/0.6" version="0.6">
  <EventParameters>
    <pick publicID="8332305">
      <time>
        <value>2007-10-01T13:37:14.115Z</value>
        <lowerUncertainty>0.5</lowerUncertainty>
        <upperUncertainty>1.0</upperUncertainty>
      </time>
      <waveformID locationCode="10" channelCode="HHN" stationCode="WHZ" networkCode="NZ"/>
      <phaseHint>Sn</phaseHint>
      <evaluationMode>manual</evaluationMode>
      <evaluationStatus>confirmed</evaluationStatus>
    </pick>
    <pick publicID="8332309">
      <time>
        <value>2007-10-01T13:36:39.215Z</value>
        <lowerUncertainty>0.1</lowerUncertainty>
        <upperUncertainty>0.25</upperUncertainty>
      </time>
      <waveformID locationCode="10" channelCode="HHZ" stationCode="TUZ" networkCode="NZ"/>
      <phaseHint>Pn</phaseHint>
      <evaluationMode>manual</evaluationMode>
      <evaluationStatus>confirmed</evaluationStatus>
    </pick>
    <pick publicID="8332312">
      <time>
        <value>2007-10-01T13:36:56.648Z</value>
        <lowerUncertainty>0.25</lowerUncertainty>
        <upperUncertainty>0.5</upperUncertainty>
      </time>
      <waveformID locationCode="10" channelCode="HHZ" stationCode="LBZ" networkCode="NZ"/>
      <phaseHint>Pn</phaseHint>
      <evaluationMode>manual</evaluationMode>
      <evaluationStatus>confirmed</evaluationStatus>
    </pick>
    <pick publicID="5157482">
      <time>
        <value>2007-10-01T13:36:43.948Z</value>
        <lowerUncertainty>0.25</lowerUncertainty>
        <upperUncertainty>0.5</upperUncertainty>
      </time>
      <waveformID locationCode="10" channelCode="HHZ" stationCode="EAZ" networkCode="NZ"/>
      <phaseHint>Pn</phaseHint>
      <evaluationMode>manual</evaluationMode>
      <evaluationStatus>confirmed</evaluationStatus>
    </pick>
    <pick publicID="8693800">
      <time>
        <value>2007-10-01T13:37:06.348Z</value>
        <lowerUncertainty>0.5</lowerUncertainty>
        <upperUncertainty>1.0</upperUncertainty>
      </time>
      <waveformID locationCode="10" channelCode="HHZ" stationCode="FOZ" networkCode="NZ"/>
      <onset>emergent</onset>
      <phaseHint>Pn</phaseHint>
      <evaluationMode>manual</evaluationMode>
      <evaluationStatus>confirmed</evaluationStatus>
    </pick>
    <pick publicID="8332308">
      <time>
        <value>2007-10-01T13:36:36.319Z</value>
        <lowerUncertainty>0.1</lowerUncertainty>
        <upperUncertainty>0.25</upperUncertainty>
      </time>
      <waveformID locationCode="10" channelCode="HHZ" stationCode="MLZ" networkCode="NZ"/>
      <phaseHint>Pn</phaseHint>
      <evaluationMode>manual</evaluationMode>
      <evaluationStatus>confirmed</evaluationStatus>
    </pick>
    <pick publicID="8332311">
      <time>
        <value>2007-10-01T13:36:47.248Z</value>
        <lowerUncertainty>0.25</lowerUncertainty>
        <upperUncertainty>0.5</upperUncertainty>
      </time>
      <waveformID locationCode="10" channelCode="EHZ" stationCode="HHSZ" networkCode="NZ"/>
      <phaseHint>Pn</phaseHint>
      <evaluationMode>manual</evaluationMode>
      <evaluationStatus>confirmed</evaluationStatus>
    </pick>
    <pick publicID="8332306">
      <time>
        <value>2007-10-01T13:36:30.348Z</value>
        <upperUncertainty>0.1</upperUncertainty>
      </time>
      <waveformID locationCode="10" channelCode="HHZ" stationCode="SYZ" networkCode="NZ"/>
      <phaseHint>Pn</phaseHint>
      <evaluationMode>manual</evaluationMode>
      <evaluationStatus>confirmed</evaluationStatus>
    </pick>
    <pick publicID="8332300">
      <time>
        <value>2007-10-01T13:36:55.958Z</value>
        <lowerUncertainty>0.5</lowerUncertainty>
        <upperUncertainty>1.0</upperUncertainty>
      </time>
      <waveformID locationCode="10" channelCode="HHN" stationCode="APZ" networkCode="NZ"/>
      <phaseHint>Sn</phaseHint>
      <evaluationMode>manual</evaluationMode>
      <evaluationStatus>confirmed</evaluationStatus>
    </pick>
    <pick publicID="8332301">
      <time>
        <value>2007-10-01T13:36:18.328Z</value>
        <lowerUncertainty>0.1</lowerUncertainty>
        <upperUncertainty>0.25</upperUncertainty>
      </time>
      <waveformID locationCode="10" channelCode="HHZ" stationCode="PYZ" networkCode="NZ"/>
      <phaseHint>Pn</phaseHint>
      <evaluationMode>manual</evaluationMode>
      <evaluationStatus>confirmed</evaluationStatus>
    </pick>
    <pick publicID="8332299">
      <time>
        <value>2007-10-01T13:36:19.308Z</value>
        <lowerUncertainty>0.1</lowerUncertainty>
        <upperUncertainty>0.25</upperUncertainty>
      </time>
      <waveformID locationCode="10" channelCode="HHZ" stationCode="APZ" networkCode="NZ"/>
      <phaseHint>Pn</phaseHint>
      <evaluationMode>manual</evaluationMode>
      <evaluationStatus>confirmed</evaluationStatus>
    </pick>
    <pick publicID="8332313">
      <time>
        <value>2007-10-01T13:36:53.753Z</value>
        <lowerUncertainty>0.1</lowerUncertainty>
        <upperUncertainty>0.25</upperUncertainty>
      </time>
      <waveformID locationCode="10" channelCode="HHZ" stationCode="ODZ" networkCode="NZ"/>
      <phaseHint>Pn</phaseHint>
      <evaluationMode>manual</evaluationMode>
      <evaluationStatus>confirmed</evaluationStatus>
    </pick>
    <pick publicID="8332302">
      <time>
        <value>2007-10-01T13:36:57.078Z</value>
        <lowerUncertainty>0.5</lowerUncertainty>
        <upperUncertainty>1.0</upperUncertainty>
      </time>
      <waveformID locationCode="10" channelCode="HHE" stationCode="PYZ" networkCode="NZ"/>
      <phaseHint>Sn</phaseHint>
      <evaluationMode>manual</evaluationMode>
      <evaluationStatus>confirmed</evaluationStatus>
    </pick>
    <pick publicID="8332304">
      <time>
        <value>2007-10-01T13:36:28.615Z</value>
        <lowerUncertainty>0.1</lowerUncertainty>
        <upperUncertainty>0.25</upperUncertainty>
      </time>
      <waveformID locationCode="10" channelCode="HHZ" stationCode="WHZ" networkCode="NZ"/>
      <phaseHint>Pn</phaseHint>
      <evaluationMode>manual</evaluationMode>
      <evaluationStatus>confirmed</evaluationStatus>
    </pick>
    <pick publicID="8332310">
      <time>
        <value>2007-10-01T13:36:44.578Z</value>
        <lowerUncertainty>0.1</lowerUncertainty>
        <upperUncertainty>0.25</upperUncertainty>
      </time>
      <waveformID locationCode="10" channelCode="HHZ" stationCode="MSZ" networkCode="NZ"/>
      <phaseHint>Pn</phaseHint>
      <evaluationMode>manual</evaluationMode>
      <evaluationStatus>confirmed</evaluationStatus>
    </pick>
    <pick publicID="8332307">
      <time>
        <value>2007-10-01T13:37:14.978Z</value>
        <lowerUncertainty>0.5</lowerUncertainty>
        <upperUncertainty>1.0</upperUncertainty>
      </time>
      <waveformID locationCode="10" channelCode="HHN" stationCode="SYZ" networkCode="NZ"/>
      <phaseHint>Sn</phaseHint>
      <evaluationMode>manual</evaluationMode>
      <evaluationStatus>confirmed</evaluationStatus>
    </pick>
    <pick publicID="8332314">
      <time>
        <value>2007-10-01T13:36:55.798Z</value>
        <lowerUncertainty>0.25</lowerUncertainty>
        <upperUncertainty>0.5</upperUncertainty>
      </time>
      <waveformID locationCode="10" channelCode="HHZ" stationCode="JCZ" networkCode="NZ"/>
      <phaseHint>Pn</phaseHint>
      <evaluationMode>manual</evaluationMode>
      <evaluationStatus>confirmed</evaluationStatus>
    </pick>
    <pick publicID="5157486">
      <time>
        <value>2007-10-01T13:36:47.768Z</value>
        <lowerUncertainty>0.25</lowerUncertainty>
        <upperUncertainty>0.5</upperUncertainty>
      </time>
      <waveformID locationCode="10" channelCode="HHZ" stationCode="WKZ" networkCode="NZ"/>
      <phaseHint>Pn</phaseHint>
      <evaluationMode>manual</evaluationMode>
      <evaluationStatus>confirmed</evaluationStatus>
    </pick>
    <pick publicID="8332303">
      <time>
        <value>2007-10-01T13:36:29.508Z</value>
        <lowerUncertainty>0.25</lowerUncertainty>
        <upperUncertainty>0.5</upperUncertainty>
      </time>
      <waveformID locationCode="10" channelCode="HHZ" stationCode="DCZ" networkCode="NZ"/>
      <phaseHint>Pn</phaseHint>
      <evaluationMode>manual</evaluationMode>
      <evaluationStatus>confirmed</evaluationStatus>
    </pick>
    <amplitude publicID="15006934">
      <type>A</type>
      <amplitude>
        <value>15791.842000</value>
      </amplitude>
      <timeWindow>
        <reference>2007-10-01T13:37:01.548Z</reference>
        <begin>0</begin>
        <end>0</end>
      </timeWindow>
      <waveformID locationCode="10" channelCode="HHZ" stationCode="APZ" networkCode="NZ"/>
      <evaluationMode>automatic</evaluationMode>
      <comment>
        <text>unit=dimensionless</text>
      </comment>
    </amplitude>
    <amplitude publicID="15006935">
      <type>A</type>
      <amplitude>
        <value>0.003077</value>
      </amplitude>
      <timeWindow>
        <reference>2007-10-01T13:37:01.498Z</reference>
        <begin>0</begin>
        <end>0</end>
      </timeWindow>
      <waveformID locationCode="10" channelCode="HHZ" stationCode="APZ" networkCode="NZ"/>
      <evaluationMode>automatic</evaluationMode>
      <comment>
        <text>unit=m</text>
      </comment>
    </amplitude>
    <amplitude publicID="15006936">
      <type>A</type>
      <amplitude>
        <value>0.000030</value>
      </amplitude>
      <timeWindow>
        <reference>2007-10-01T13:37:01.528Z</reference>
        <begin>0</begin>
        <end>0</end>
      </timeWindow>
      <waveformID locationCode="10" channelCode="HHZ" stationCode="APZ" networkCode="NZ"/>
      <evaluationMode>automatic</evaluationMode>
      <comment>
        <text>unit=m/s</text>
      </comment>
    </amplitude>
    <amplitude publicID="15006937">
      <type>A</type>
      <amplitude>
        <value>0.000883</value>
      </amplitude>
      <timeWindow>
        <reference>2007-10-01T13:37:02.338Z</reference>
        <begin>0</begin>
        <end>0</end>
      </timeWindow>
      <waveformID locationCode="10" channelCode="HHZ" stationCode="APZ" networkCode="NZ"/>
      <evaluationMode>automatic</evaluationMode>
      <comment>
        <text>unit=m/(s*s)</text>
      </comment>
    </amplitude>
    <amplitude publicID="15006938">
      <type>A</type>
      <amplitude>
        <value>22119.730000</value>
      </amplitude>
      <timeWindow>
        <reference>2007-10-01T13:37:02.168Z</reference>
        <begin>0</begin>
        <end>0</end>
      </timeWindow>
      <waveformID locationCode="10" channelCode="HHN" stationCode="APZ" networkCode="NZ"/>
      <evaluationMode>automatic</evaluationMode>
      <comment>
        <text>unit=dimensionless</text>
      </comment>
    </amplitude>
    <amplitude publicID="15006939">
      <type>A</type>
      <amplitude>
        <value>0.002846</value>
      </amplitude>
      <timeWindow>
        <reference>2007-10-01T13:37:07.058Z</reference>
        <begin>0</begin>
        <end>0</end>
      </timeWindow>
      <waveformID locationCode="10" channelCode="HHN" stationCode="APZ" networkCode="NZ"/>
      <evaluationMode>automatic</evaluationMode>
      <comment>
        <text>unit=m</text>
      </comment>
    </amplitude>
    <amplitude publicID="15006940">
      <type>A</type>
      <amplitude>
        <value>0.000030</value>
      </amplitude>
      <timeWindow>
        <reference>2007-10-01T13:37:02.148Z</reference>
        <begin>0</begin>
        <end>0</end>
      </timeWindow>
      <waveformID locationCode="10" channelCode="HHN" stationCode="APZ" networkCode="NZ"/>
      <evaluationMode>automatic</evaluationMode>
      <comment>
        <text>unit=m/s</text>
      </comment>
    </amplitude>
    <amplitude publicID="15006941">
      <type>A</type>
      <amplitude>
        <value>0.001177</value>
      </amplitude>
      <timeWindow>
        <reference>2007-10-01T13:37:02.188Z</reference>
        <begin>0</begin>
        <end>0</end>
      </timeWindow>
      <waveformID locationCode="10" channelCode="HHN" stationCode="APZ" networkCode="NZ"/>
      <evaluationMode>automatic</evaluationMode>
      <comment>
        <text>unit=m/(s*s)</text>
      </comment>
    </amplitude>
    <amplitude publicID="15006942">
      <type>A</type>
      <amplitude>
        <value>17865.887000</value>
      </amplitude>
      <timeWindow>
        <reference>2007-10-01T13:37:00.778Z</reference>
        <begin>0</begin>
        <end>0</end>
      </timeWindow>
      <waveformID locationCode="10" channelCode="HHE" stationCode="APZ" networkCode="NZ"/>
      <evaluationMode>automatic</evaluationMode>
      <comment>
        <text>unit=dimensionless</text>
      </comment>
    </amplitude>
    <amplitude publicID="15006943">
      <type>A</type>
      <amplitude>
        <value>0.003729</value>
      </amplitude>
      <timeWindow>
        <reference>2007-10-01T13:37:06.598Z</reference>
        <begin>0</begin>
        <end>0</end>
      </timeWindow>
      <waveformID locationCode="10" channelCode="HHE" stationCode="APZ" networkCode="NZ"/>
      <evaluationMode>automatic</evaluationMode>
      <comment>
        <text>unit=m</text>
      </comment>
    </amplitude>
    <amplitude publicID="15006944">
      <type>A</type>
      <amplitude>
        <value>0.000030</value>
      </amplitude>
      <timeWindow>
        <reference>2007-10-01T13:37:05.588Z</reference>
        <begin>0</begin>
        <end>0</end>
      </timeWindow>
      <waveformID locationCode="10" channelCode="HHE" stationCode="APZ" networkCode="NZ"/>
      <evaluationMode>automatic</evaluationMode>
      <comment>
        <text>unit=m/s</text>
      </comment>
    </amplitude>
    <amplitude publicID="15006945">
      <type>A</type>
      <amplitude>
        <value>0.001079</value>
      </amplitude>
      <timeWindow>
        <reference>2007-10-01T13:37:06.228Z</reference>
        <begin>0</begin>
        <end>0</end>
      </timeWindow>
      <waveformID locationCode="10" channelCode="HHE" stationCode="APZ" networkCode="NZ"/>
      <evaluationMode>automatic</evaluationMode>
      <comment>
        <text>unit=m/(s*s)</text>
      </comment>
    </amplitude>
    <amplitude publicID="15006946">
      <type>A</type>
      <amplitude>
        <value>7950.392000</value>
      </amplitude>
      <timeWindow>
        <reference>2007-10-01T13:37:01.928Z</reference>
        <begin>0</begin>
        <end>0</end>
      </timeWindow>
      <waveformID locationCode="10" channelCode="HHZ" stationCode="PYZ" networkCode="NZ"/>
      <evaluationMode>automatic</evaluationMode>
      <comment>
        <text>unit=dimensionless</text>
      </comment>
    </amplitude>
    <amplitude publicID="15006947">
      <type>A</type>
      <amplitude>
        <value>0.000945</value>
      </amplitude>
      <timeWindow>
        <reference>2007-10-01T13:37:09.658Z</reference>
        <begin>0</begin>
        <end>0</end>
      </timeWindow>
      <waveformID locationCode="10" channelCode="HHZ" stationCode="PYZ" networkCode="NZ"/>
      <evaluationMode>automatic</evaluationMode>
      <comment>
        <text>unit=m</text>
      </comment>
    </amplitude>
    <amplitude publicID="15006948">
      <type>A</type>
      <amplitude>
        <value>0.000010</value>
      </amplitude>
      <timeWindow>
        <reference>2007-10-01T13:37:01.908Z</reference>
        <begin>0</begin>
        <end>0</end>
      </timeWindow>
      <waveformID locationCode="10" channelCode="HHZ" stationCode="PYZ" networkCode="NZ"/>
      <evaluationMode>automatic</evaluationMode>
      <comment>
        <text>unit=m/s</text>
      </comment>
    </amplitude>
    <amplitude publicID="15006949">
      <type>A</type>
      <amplitude>
        <value>0.000490</value>
      </amplitude>
      <timeWindow>
        <reference>2007-10-01T13:37:02.438Z</reference>
        <begin>0</begin>
        <end>0</end>
      </timeWindow>
      <waveformID locationCode="10" channelCode="HHZ" stationCode="PYZ" networkCode="NZ"/>
      <evaluationMode>automatic</evaluationMode>
      <comment>
        <text>unit=m/(s*s)</text>
      </comment>
    </amplitude>
    <amplitude publicID="15006950">
      <type>A</type>
      <amplitude>
        <value>19598.932000</value>
      </amplitude>
      <timeWindow>
        <reference>2007-10-01T13:37:02.018Z</reference>
        <begin>0</begin>
        <end>0</end>
      </timeWindow>
      <waveformID locationCode="10" channelCode="HHN" stationCode="PYZ" networkCode="NZ"/>
      <evaluationMode>automatic</evaluationMode>
      <comment>
        <text>unit=dimensionless</text>
      </comment>
    </amplitude>
    <amplitude publicID="15006951">
      <type>A</type>
      <amplitude>
        <value>0.002128</value>
      </amplitude>
      <timeWindow>
        <reference>2007-10-01T13:36:59.978Z</reference>
        <begin>0</begin>
        <end>0</end>
      </timeWindow>
      <waveformID locationCode="10" channelCode="HHN" stationCode="PYZ" networkCode="NZ"/>
      <evaluationMode>automatic</evaluationMode>
      <comment>
        <text>unit=m</text>
      </comment>
    </amplitude>
    <amplitude publicID="15006952">
      <type>A</type>
      <amplitude>
        <value>0.000030</value>
      </amplitude>
      <timeWindow>
        <reference>2007-10-01T13:37:01.998Z</reference>
        <begin>0</begin>
        <end>0</end>
      </timeWindow>
      <waveformID locationCode="10" channelCode="HHN" stationCode="PYZ" networkCode="NZ"/>
      <evaluationMode>automatic</evaluationMode>
      <comment>
        <text>unit=m/s</text>
      </comment>
    </amplitude>
    <amplitude publicID="15006953">
      <type>A</type>
      <amplitude>
        <value>0.000785</value>
      </amplitude>
      <timeWindow>
        <reference>2007-10-01T13:37:00.538Z</reference>
        <begin>0</begin>
        <end>0</end>
      </timeWindow>
      <waveformID locationCode="10" channelCode="HHN" stationCode="PYZ" networkCode="NZ"/>
      <evaluationMode>automatic</evaluationMode>
      <comment>
        <text>unit=m/(s*s)</text>
      </comment>
    </amplitude>
    <amplitude publicID="15006954">
      <type>A</type>
      <amplitude>
        <value>22252.059000</value>
      </amplitude>
      <timeWindow>
        <reference>2007-10-01T13:37:04.178Z</reference>
        <begin>0</begin>
        <end>0</end>
      </timeWindow>
      <waveformID locationCode="10" channelCode="HHE" stationCode="PYZ" networkCode="NZ"/>
      <evaluationMode>automatic</evaluationMode>
      <comment>
        <text>unit=dimensionless</text>
      </comment>
    </amplitude>
    <amplitude publicID="15006955">
      <type>A</type>
      <amplitude>
        <value>0.002360</value>
      </amplitude>
      <timeWindow>
        <reference>2007-10-01T13:37:09.468Z</reference>
        <begin>0</begin>
        <end>0</end>
      </timeWindow>
      <waveformID locationCode="10" channelCode="HHE" stationCode="PYZ" networkCode="NZ"/>
      <evaluationMode>automatic</evaluationMode>
      <comment>
        <text>unit=m</text>
      </comment>
    </amplitude>
    <amplitude publicID="15006956">
      <type>A</type>
      <amplitude>
        <value>0.000030</value>
      </amplitude>
      <timeWindow>
        <reference>2007-10-01T13:37:04.168Z</reference>
        <begin>0</begin>
        <end>0</end>
      </timeWindow>
      <waveformID locationCode="10" channelCode="HHE" stationCode="PYZ" networkCode="NZ"/>
      <evaluationMode>automatic</evaluationMode>
      <comment>
        <text>unit=m/s</text>
      </comment>
    </amplitude>
    <amplitude publicID="15006957">
      <type>A</type>
      <amplitude>
        <value>0.001079</value>
      </amplitude>
      <timeWindow>
        <reference>2007-10-01T13:37:04.018Z</reference>
        <begin>0</begin>
        <end>0</end>
